{"type":"FeatureCollection", "features": [
{"type":"Feature","geometry":{"type":"Polygon","coordinates":[[[134.867,35.658],[134.854,35.588],[134.926,35.513],[135.037,35.537],[135.05,35.442],[135,35.387],[134.923,35.394],[134.921,35.316],[135.156,35.226],[135.295,35.142],[135.393,35.111],[135.371,35.045],[135.382,35.01],[135.571,34.967],[135.675,34.899],[135.745,34.804],[135.728,34.778],[135.755,34.728],[135.89,34.709],[135.916,34.753],[136.014,34.708],[136.055,34.738],[136.022,34.792],[136.027,34.822],[135.898,34.871],[135.815,35.046],[135.851,35.131],[135.845,35.261],[135.768,35.356],[135.701,35.344],[135.534,35.377],[135.459,35.473],[135.486,35.558],[135.401,35.562],[135.288,35.516],[135.187,35.559],[135.3,35.682],[135.221,35.772],[135.086,35.74],[134.923,35.646],[134.867,35.658]]]},"properties":{"id":26,"nam_ja":"京都府"}},
{"type":"Feature","geometry":{"type":"Polygon","coordinates":[[[130.039,33.47],[129.896,33.549],[129.783,33.454],[129.864,33.408],[129.79,33.34],[129.759,33.29],[129.818,33.183],[129.938,33.165],[129.939,33.073],[130.086,32.975],[130.203,32.957],[130.128,33.108],[130.247,33.192],[130.355,33.14],[130.339,33.203],[130.44,33.265],[130.541,33.366],[130.512,33.449],[130.429,33.397],[130.277,33.478],[130.039,33.47]]]},"properties":{"id":41,"nam_ja":"佐賀県"}},
{"type":"Feature","geometry":{"type":"MultiPolygon","coordinates":[[[[131.329,32.833],[131.263,32.879],[131.263,32.976],[131.16,33.141],[131.115,33.18],[130.992,33.183],[131.023,33.087],[130.969,33.024],[130.839,33.104],[130.722,33.152],[130.58,33.116],[130.413,33.003],[130.442,32.926],[130.601,32.811],[130.607,32.713],[130.486,32.613],[130.615,32.631],[130.542,32.495],[130.573,32.434],[130.511,32.391],[130.467,32.285],[130.36,32.168],[130.404,32.12],[130.622,32.156],[130.72,32.101],[130.857,32.1],[130.974,32.122],[131.003,32.169],[131.096,32.153],[131.046,32.244],[131.111,32.328],[131.006,32.493],[131.054,32.588],[131.231,32.744],[131.265,32.826],[131.329,32.833]]],[[[130.353,32.405],[130.413,32.422],[130.456,32.519],[130.317,32.517],[130.204,32.451],[130.185,32.548],[130.043,32.512],[129.975,32.354],[129.983,32.246],[130.021,32.193],[130.101,32.237],[130.14,32.309],[130.224,32.369],[130.219,32.424],[130.353,32.405]]]]},"properties":{"id":43,"nam_ja":"熊本県"}},
{"type":"Feature","geometry":{"type":"MultiPolygon","coordinates":[[[[134.332,34.563],[134.182,34.516],[134.297,34.48],[134.332,34.563]]],[[[133.679,34.012],[133.783,34.08],[133.921,34.114],[134.001,34.075],[134.146,34.165],[134.359,34.184],[134.44,34.208],[134.391,34.253],[134.262,34.283],[134.255,34.347],[134.083,34.349],[133.976,34.373],[133.822,34.325],[133.648,34.185],[133.627,34.053],[133.598,34.044],[133.679,34.012]]]]},"properties":{"id":37,"nam_ja":"香川県"}},
{"type":"Feature","geometry":{"type":"Polygon","coordinates":[[[137.562,35.289],[137.442,35.234],[137.305,35.29],[137.222,35.256],[137.096,35.291],[137.049,35.358],[136.961,35.399],[136.834,35.356],[136.77,35.369],[136.678,35.241],[136.673,35.135],[136.751,35.077],[136.77,35.021],[136.828,34.961],[136.821,34.884],[136.93,34.848],[137.027,34.777],[137.311,34.804],[137.32,34.733],[137.118,34.635],[137.057,34.649],[137.024,34.587],[137.144,34.59],[137.341,34.648],[137.484,34.674],[137.502,34.833],[137.64,34.892],[137.717,35.035],[137.828,35.154],[137.838,35.212],[137.706,35.234],[137.577,35.199],[137.562,35.289]]]},"properties":{"id":23,"nam_ja":"愛知県"}},
{"type":"Feature","geometry":{"type":"Polygon","coordinates":[[[140.264,36.933],[140.194,37.064],[140.101,37.123],[139.955,37.155],[139.831,37.132],[139.821,37.087],[139.673,37.058],[139.619,37.017],[139.46,36.97],[139.393,36.911],[139.405,36.825],[139.331,36.627],[139.471,36.602],[139.361,36.384],[139.464,36.272],[139.634,36.27],[139.665,36.207],[139.688,36.2],[139.822,36.24],[139.849,36.311],[140.144,36.414],[140.185,36.398],[140.249,36.533],[140.232,36.7],[140.267,36.824],[140.264,36.933]]]},"properties":{"id":9,"nam_ja":"栃木県"}},
{"type":"Feature","geometry":{"type":"Polygon","coordinates":[[[138.729,35.909],[138.676,35.87],[138.37,35.971],[138.292,35.867],[138.248,35.886],[138.186,35.795],[138.18,35.713],[138.219,35.644],[138.259,35.552],[138.256,35.319],[138.328,35.328],[138.399,35.2],[138.492,35.168],[138.532,35.223],[138.512,35.314],[138.532,35.406],[138.68,35.358],[138.916,35.401],[138.954,35.46],[139.085,35.512],[139.129,35.564],[139.131,35.672],[139.026,35.719],[138.944,35.855],[138.893,35.84],[138.729,35.909]]]},"properties":{"id":19,"nam_ja":"山梨県"}},
{"type":"Feature","geometry":{"type":"Polygon","coordinates":[[[136.281,35.659],[136.15,35.698],[136.177,35.596],[136.105,35.529],[135.94,35.52],[135.89,35.404],[135.812,35.412],[135.768,35.356],[135.845,35.261],[135.851,35.131],[135.815,35.046],[135.898,34.871],[136.027,34.822],[136.022,34.792],[136.088,34.811],[136.165,34.888],[136.25,34.858],[136.357,34.901],[136.414,34.98],[136.436,35.13],[136.415,35.218],[136.426,35.448],[136.4,35.53],[136.318,35.547],[136.281,35.659]]]},"properties":{"id":25,"nam_ja":"滋賀県"}},
{"type":"Feature","geometry":{"type":"Polygon","coordinates":[[[138.696,36.739],[138.543,36.704],[138.458,36.633],[138.404,36.521],[138.401,36.435],[138.49,36.402],[138.648,36.408],[138.654,36.303],[138.6,36.278],[138.635,36.206],[138.631,36.028],[138.713,35.985],[138.755,36.035],[138.931,36.088],[139.016,36.134],[139.108,36.253],[139.164,36.279],[139.324,36.23],[139.377,36.244],[139.444,36.197],[139.665,36.207],[139.634,36.27],[139.464,36.272],[139.361,36.384],[139.471,36.602],[139.331,36.627],[139.405,36.825],[139.393,36.911],[139.232,36.941],[139.097,37.059],[139.047,36.987],[138.97,36.981],[138.979,36.891],[138.826,36.772],[138.696,36.739]]]},"properties":{"id":10,"nam_ja":"群馬県"}},
{"type":"Feature","geometry":{"type":"Polygon","coordinates":[[[141.632,38.971],[141.491,38.998],[141.489,38.907],[141.422,38.78],[141.308,38.82],[141.258,38.763],[141.14,38.79],[141.094,38.888],[140.992,38.876],[140.826,38.964],[140.774,38.958],[140.644,38.888],[140.547,38.89],[140.591,38.835],[140.619,38.673],[140.579,38.569],[140.578,38.393],[140.471,38.27],[140.48,38.181],[140.421,38.087],[140.276,38.035],[140.28,37.977],[140.475,37.947],[140.488,37.9],[140.661,37.901],[140.695,37.803],[140.853,37.796],[140.857,37.891],[140.931,37.896],[140.915,37.981],[140.965,38.185],[141.03,38.276],[141.063,38.37],[141.161,38.365],[141.298,38.414],[141.411,38.397],[141.465,38.339],[141.54,38.317],[141.467,38.561],[141.525,38.611],[141.482,38.675],[141.546,38.712],[141.522,38.789],[141.662,38.897],[141.632,38.971]]]},"properties":{"id":4,"nam_ja":"宮城県"}},
{"type":"Feature","geometry":{"type":"Polygon","coordinates":[[[138.219,35.644],[138.138,35.522],[138.142,35.371],[138.072,35.346],[137.838,35.212],[137.828,35.154],[137.717,35.035],[137.64,34.892],[137.502,34.833],[137.484,34.674],[137.585,34.679],[137.799,34.645],[137.911,34.667],[138.078,34.642],[138.193,34.6],[138.219,34.717],[138.295,34.767],[138.357,34.915],[138.515,34.983],[138.574,35.11],[138.698,35.137],[138.828,35.107],[138.883,35.025],[138.787,35.024],[138.79,34.908],[138.752,34.823],[138.742,34.723],[138.794,34.623],[138.844,34.601],[138.973,34.691],[139.131,34.879],[139.146,34.953],[139.096,34.976],[139.075,35.093],[139.111,35.141],[139.031,35.15],[138.975,35.262],[139.019,35.33],[138.995,35.403],[138.916,35.401],[138.68,35.358],[138.532,35.406],[138.512,35.314],[138.532,35.223],[138.492,35.168],[138.399,35.2],[138.328,35.328],[138.256,35.319],[138.259,35.552],[138.219,35.644]]]},"properties":{"id":22,"nam_ja":"静岡県"}},
{"type":"Feature","geometry":{"type":"Polygon","coordinates":[[[140.794,36.86],[140.695,36.888],[140.539,36.859],[140.464,36.792],[140.377,36.838],[140.363,36.885],[140.264,36.933],[140.267,36.824],[140.232,36.7],[140.249,36.533],[140.185,36.398],[140.144,36.414],[139.849,36.311],[139.822,36.24],[139.688,36.2],[139.73,36.088],[139.776,36.091],[139.939,35.94],[140.147,35.846],[140.308,35.865],[140.511,35.959],[140.706,35.837],[140.73,35.796],[140.852,35.744],[140.775,35.823],[140.657,35.996],[140.572,36.185],[140.56,36.292],[140.622,36.362],[140.612,36.478],[140.794,36.86]]]},"properties":{"id":8,"nam_ja":"茨城県"}},
{"type":"Feature","geometry":{"type":"MultiPolygon","coordinates":[[[[128.153,26.717],[128.023,26.626],[127.997,26.69],[127.872,26.687],[127.933,26.538],[127.717,26.4],[127.756,26.294],[127.635,26.198],[127.676,26.074],[127.83,26.168],[127.765,26.205],[127.862,26.345],[127.852,26.45],[127.942,26.441],[127.991,26.503],[128.135,26.554],[128.145,26.624],[128.234,26.63],[128.32,26.756],[128.315,26.82],[128.268,26.86],[128.153,26.717]]],[[[125.306,24.711],[125.43,24.761],[125.332,24.799],[125.255,24.795],[125.306,24.711]]],[[[124.173,24.328],[124.246,24.357],[124.249,24.465],[124.15,24.452],[124.138,24.39],[124.173,24.328]]],[[[123.872,24.254],[123.928,24.327],[123.879,24.399],[123.745,24.387],[123.745,24.321],[123.872,24.254]]]]},"properties":{"id":47,"nam_ja":"沖縄県"}},
{"type":"Feature","geometry":{"type":"Polygon","coordinates":[[[139.87,39.119],[139.84,38.985],[139.747,38.776],[139.627,38.688],[139.548,38.553],[139.722,38.497],[139.723,38.394],[139.817,38.356],[139.9,38.276],[139.861,38.232],[139.683,38.17],[139.693,38.115],[139.644,37.995],[139.629,37.894],[139.681,37.847],[139.81,37.803],[139.958,37.814],[139.993,37.759],[140.1,37.741],[140.237,37.747],[140.28,37.977],[140.276,38.035],[140.421,38.087],[140.48,38.181],[140.471,38.27],[140.578,38.393],[140.579,38.569],[140.619,38.673],[140.591,38.835],[140.547,38.89],[140.462,38.92],[140.446,38.98],[140.261,39.036],[140.202,39.035],[140.076,39.087],[140.063,39.134],[139.87,39.119]]]},"properties":{"id":6,"nam_ja":"山形県"}},
{"type":"Feature","geometry":{"type":"MultiPolygon","coordinates":[[[[135.651,34.383],[135.508,34.337],[135.431,34.347],[135.247,34.313],[135.111,34.272],[135.093,34.312],[135.073,34.277],[135.138,34.225],[135.184,34.148],[135.115,34.12],[135.162,34.037],[135.058,33.903],[135.144,33.883],[135.186,33.819],[135.354,33.744],[135.394,33.704],[135.405,33.578],[135.511,33.525],[135.771,33.479],[135.916,33.553],[135.939,33.646],[136.011,33.724],[135.966,33.724],[135.856,33.818],[135.858,33.873],[135.607,33.899],[135.636,33.991],[135.54,34.075],[135.668,34.224],[135.651,34.383]]],[[[136.003,34.01],[135.927,33.981],[135.909,33.918],[135.969,33.929],[136.003,34.01]]]]},"properties":{"id":30,"nam_ja":"和歌山県"}},
{"type":"Feature","geometry":{"type":"MultiPolygon","coordinates":[[[[129.383,34.424],[129.47,34.554],[129.489,34.665],[129.442,34.701],[129.319,34.632],[129.286,34.56],[129.271,34.391],[129.314,34.341],[129.393,34.362],[129.383,34.424]]],[[[129.213,34.084],[129.281,34.13],[129.339,34.299],[129.221,34.298],[129.184,34.247],[129.167,34.139],[129.213,34.084]]],[[[129.716,33.704],[129.767,33.846],[129.698,33.861],[129.649,33.807],[129.716,33.704]]],[[[129.375,33.169],[129.501,33.26],[129.404,33.271],[129.375,33.169]]],[[[129.79,33.34],[129.576,33.38],[129.591,33.305],[129.563,33.217],[129.766,33.125],[129.792,33.082],[129.876,33.064],[129.945,33.014],[129.934,32.92],[129.833,32.85],[129.823,32.972],[129.761,33.049],[129.678,33.1],[129.634,32.947],[129.685,32.852],[129.776,32.798],[129.895,32.663],[129.955,32.741],[130.083,32.794],[130.179,32.794],[130.206,32.729],[130.13,32.639],[130.219,32.606],[130.353,32.682],[130.377,32.778],[130.339,32.856],[130.241,32.875],[130.158,32.841],[130.116,32.882],[130.203,32.957],[130.086,32.975],[129.939,33.073],[129.938,33.165],[129.818,33.183],[129.759,33.29],[129.79,33.34]]],[[[129.059,32.817],[129.11,32.938],[129.087,33.026],[128.995,32.965],[129.044,32.923],[129.059,32.817]]],[[[128.772,32.574],[128.768,32.643],[128.869,32.644],[128.846,32.753],[128.65,32.775],[128.652,32.591],[128.772,32.574]]]]},"properties":{"id":42,"nam_ja":"長崎県"}},
{"type":"Feature","geometry":{"type":"Polygon","coordinates":[[[140.955,40.248],[140.985,40.428],[140.893,40.424],[140.788,40.458],[140.647,40.404],[140.525,40.42],[140.384,40.485],[140.222,40.432],[140.108,40.436],[140.053,40.467],[139.936,40.429],[140.025,40.325],[139.973,40.126],[139.915,40.03],[139.842,39.97],[139.695,39.98],[139.743,39.869],[139.812,39.858],[139.921,39.901],[140.015,39.837],[140.05,39.774],[140.059,39.587],[140.026,39.42],[139.968,39.297],[139.928,39.288],[139.87,39.119],[140.063,39.134],[140.076,39.087],[140.202,39.035],[140.261,39.036],[140.446,38.98],[140.462,38.92],[140.547,38.89],[140.644,38.888],[140.774,38.958],[140.801,39.077],[140.77,39.124],[140.77,39.252],[140.693,39.302],[140.654,39.391],[140.724,39.481],[140.728,39.556],[140.805,39.612],[140.823,39.688],[140.783,39.73],[140.847,39.793],[140.785,39.872],[140.878,39.875],[140.846,39.974],[140.905,40.222],[140.955,40.248]]]},"properties":{"id":5,"nam_ja":"秋田県"}},
{"type":"Feature","geometry":{"type":"Polygon","coordinates":[[[134.402,35.241],[134.321,35.202],[134.153,35.195],[134.139,35.279],[134.097,35.306],[133.797,35.294],[133.596,35.345],[133.566,35.255],[133.501,35.193],[133.397,35.165],[133.403,35.114],[133.288,35.096],[133.268,35.058],[133.32,34.987],[133.297,34.89],[133.378,34.805],[133.383,34.622],[133.445,34.555],[133.446,34.48],[133.489,34.442],[133.659,34.52],[133.783,34.438],[133.834,34.474],[133.91,34.451],[133.975,34.534],[134.054,34.587],[134.12,34.589],[134.28,34.733],[134.321,34.722],[134.316,34.802],[134.253,34.851],[134.294,34.908],[134.281,35.035],[134.316,35.043],[134.402,35.241]]]},"properties":{"id":33,"nam_ja":"岡山県"}},
{"type":"Feature","geometry":{"type":"Polygon","coordinates":[[[131.185,33.616],[131.099,33.619],[131.039,33.691],[130.993,33.851],[130.93,33.907],[130.854,33.929],[130.686,33.935],[130.622,33.882],[130.537,33.887],[130.445,33.794],[130.466,33.753],[130.395,33.61],[130.231,33.617],[130.146,33.595],[130.152,33.537],[130.039,33.47],[130.277,33.478],[130.429,33.397],[130.512,33.449],[130.541,33.366],[130.44,33.265],[130.339,33.203],[130.355,33.14],[130.424,33.053],[130.413,33.003],[130.58,33.116],[130.722,33.152],[130.839,33.104],[130.887,33.187],[130.836,33.211],[130.85,33.337],[130.895,33.446],[130.974,33.505],[131.163,33.508],[131.185,33.616]]]},"properties":{"id":40,"nam_ja":"福岡県"}},
{"type":"Feature","geometry":{"type":"Polygon","coordinates":[[[137.587,36.39],[137.461,36.412],[137.395,36.455],[137.313,36.425],[137.279,36.465],[137.161,36.457],[137.005,36.288],[136.907,36.361],[136.792,36.299],[136.852,36.248],[136.754,36.086],[136.726,35.996],[136.792,35.947],[136.832,35.858],[136.789,35.799],[136.59,35.796],[136.328,35.775],[136.281,35.659],[136.318,35.547],[136.4,35.53],[136.426,35.448],[136.415,35.218],[136.502,35.235],[136.616,35.15],[136.673,35.135],[136.678,35.241],[136.77,35.369],[136.834,35.356],[136.961,35.399],[137.049,35.358],[137.096,35.291],[137.222,35.256],[137.305,35.29],[137.442,35.234],[137.562,35.289],[137.633,35.399],[137.631,35.47],[137.514,35.607],[137.545,35.65],[137.459,35.761],[137.338,35.798],[137.38,35.892],[137.458,35.889],[137.614,36.061],[137.551,36.11],[137.574,36.21],[137.651,36.327],[137.587,36.39]]]},"properties":{"id":21,"nam_ja":"岐阜県"}},
{"type":"Feature","geometry":{"type":"Polygon","coordinates":[[[141.683,40.451],[141.565,40.543],[141.473,40.585],[141.431,40.688],[141.387,40.942],[141.39,41.17],[141.469,41.42],[141.329,41.355],[141.193,41.388],[141.068,41.482],[140.924,41.536],[140.839,41.421],[140.765,41.194],[140.812,41.129],[140.982,41.2],[141.056,41.183],[141.158,41.277],[141.223,41.253],[141.279,41.155],[141.221,40.972],[141.129,40.872],[140.999,40.937],[140.948,40.993],[140.861,40.972],[140.859,40.888],[140.795,40.837],[140.697,40.857],[140.635,41.077],[140.643,41.17],[140.55,41.229],[140.497,41.189],[140.342,41.25],[140.319,41],[140.251,40.802],[140.122,40.743],[140.052,40.769],[139.924,40.645],[139.949,40.493],[139.936,40.429],[140.053,40.467],[140.108,40.436],[140.222,40.432],[140.384,40.485],[140.525,40.42],[140.647,40.404],[140.788,40.458],[140.893,40.424],[140.985,40.428],[140.955,40.248],[141.016,40.219],[141.101,40.282],[141.219,40.317],[141.317,40.373],[141.436,40.374],[141.537,40.348],[141.587,40.407],[141.683,40.451]]]},"properties":{"id":2,"nam_ja":"青森県"}},
{"type":"Feature","geometry":{"type":"Polygon","coordinates":[[[135.371,35.045],[135.346,34.965],[135.442,34.939],[135.416,34.819],[135.459,34.735],[135.403,34.693],[135.444,34.644],[135.418,34.519],[135.218,34.345],[135.093,34.312],[135.111,34.272],[135.247,34.313],[135.431,34.347],[135.508,34.337],[135.651,34.383],[135.677,34.525],[135.65,34.545],[135.673,34.702],[135.728,34.778],[135.745,34.804],[135.675,34.899],[135.571,34.967],[135.382,35.01],[135.371,35.045]]]},"properties":{"id":27,"nam_ja":"大阪府"}},
{"type":"Feature","geometry":{"type":"Polygon","coordinates":[[[138.696,36.739],[138.693,36.852],[138.584,36.928],[138.586,36.987],[138.525,37.031],[138.395,36.997],[138.296,36.856],[138.115,36.85],[138.069,36.805],[138.003,36.827],[138.032,36.89],[137.921,36.92],[137.82,36.799],[137.762,36.766],[137.752,36.595],[137.689,36.563],[137.633,36.426],[137.587,36.39],[137.651,36.327],[137.574,36.21],[137.551,36.11],[137.614,36.061],[137.458,35.889],[137.38,35.892],[137.338,35.798],[137.459,35.761],[137.545,35.65],[137.514,35.607],[137.631,35.47],[137.633,35.399],[137.562,35.289],[137.577,35.199],[137.706,35.234],[137.838,35.212],[138.072,35.346],[138.142,35.371],[138.138,35.522],[138.219,35.644],[138.18,35.713],[138.186,35.795],[138.248,35.886],[138.292,35.867],[138.37,35.971],[138.676,35.87],[138.729,35.909],[138.713,35.985],[138.631,36.028],[138.635,36.206],[138.6,36.278],[138.654,36.303],[138.648,36.408],[138.49,36.402],[138.401,36.435],[138.404,36.521],[138.458,36.633],[138.543,36.704],[138.696,36.739]]]},"properties":{"id":20,"nam_ja":"長野県"}},
{"type":"Feature","geometry":{"type":"Polygon","coordinates":[[[131.885,32.746],[131.984,32.863],[131.958,32.946],[131.896,32.98],[131.912,33.066],[131.805,33.131],[131.889,33.244],[131.747,33.248],[131.691,33.279],[131.586,33.246],[131.511,33.269],[131.497,33.358],[131.586,33.346],[131.702,33.407],[131.734,33.47],[131.729,33.587],[131.66,33.67],[131.585,33.692],[131.498,33.67],[131.425,33.573],[131.278,33.581],[131.185,33.616],[131.163,33.508],[130.974,33.505],[130.895,33.446],[130.85,33.337],[130.836,33.211],[130.887,33.187],[130.839,33.104],[130.969,33.024],[131.023,33.087],[130.992,33.183],[131.115,33.18],[131.16,33.141],[131.263,32.976],[131.263,32.879],[131.329,32.833],[131.359,32.804],[131.475,32.837],[131.592,32.775],[131.712,32.774],[131.737,32.833],[131.858,32.821],[131.885,32.746]]]},"properties":{"id":44,"nam_ja":"大分県"}},
{"type":"Feature","geometry":{"type":"Polygon","coordinates":[[[136.673,35.135],[136.616,35.15],[136.502,35.235],[136.415,35.218],[136.436,35.13],[136.414,34.98],[136.357,34.901],[136.25,34.858],[136.165,34.888],[136.088,34.811],[136.022,34.792],[136.055,34.738],[136.085,34.676],[136.049,34.58],[136.212,34.529],[136.206,34.449],[136.089,34.428],[136.07,34.388],[136.131,34.252],[136.073,34.033],[136.003,34.01],[135.969,33.929],[135.909,33.918],[135.88,33.909],[135.874,33.861],[135.858,33.873],[135.856,33.818],[135.966,33.724],[136.011,33.724],[136.108,33.89],[136.264,33.968],[136.282,34.02],[136.202,34.075],[136.285,34.117],[136.278,34.162],[136.463,34.232],[136.506,34.274],[136.605,34.258],[136.671,34.333],[136.845,34.251],[136.898,34.276],[136.864,34.364],[136.913,34.453],[136.813,34.492],[136.648,34.587],[136.554,34.613],[136.52,34.697],[136.534,34.753],[136.646,34.905],[136.651,34.993],[136.77,35.021],[136.751,35.077],[136.673,35.135]]]},"properties":{"id":24,"nam_ja":"三重県"}},
{"type":"Feature","geometry":{"type":"Polygon","coordinates":[[[133.136,35.074],[132.99,35.101],[132.863,35.097],[132.72,34.948],[132.65,34.92],[132.615,34.843],[132.537,34.795],[132.435,34.821],[132.142,34.716],[132.161,34.683],[132.115,34.567],[132.036,34.502],[132.068,34.468],[132.084,34.358],[132.159,34.234],[132.245,34.211],[132.232,34.257],[132.325,34.343],[132.478,34.358],[132.524,34.246],[132.568,34.198],[132.64,34.202],[132.772,34.253],[132.895,34.326],[133.079,34.346],[133.129,34.384],[133.27,34.432],[133.29,34.383],[133.367,34.369],[133.446,34.48],[133.445,34.555],[133.383,34.622],[133.378,34.805],[133.297,34.89],[133.32,34.987],[133.268,35.058],[133.136,35.074]]]},"properties":{"id":34,"nam_ja":"広島県"}},
{"type":"Feature","geometry":{"type":"MultiPolygon","coordinates":[[[[148.343,45.291],[148.176,45.26],[148.031,45.272],[147.964,45.418],[147.851,45.365],[147.872,45.226],[147.74,45.196],[147.69,45.095],[147.537,45.106],[147.518,44.999],[147.376,44.909],[147.267,44.868],[147.193,44.765],[147.182,44.689],[146.891,44.518],[146.872,44.441],[146.953,44.427],[147.03,44.519],[147.106,44.569],[147.222,44.582],[147.337,44.715],[147.489,44.782],[147.598,44.855],[147.626,44.972],[147.681,45.003],[147.785,44.948],[147.908,44.961],[148.091,45.107],[148.329,45.224],[148.459,45.25],[148.64,45.335],[148.843,45.352],[148.832,45.428],[148.888,45.484],[148.785,45.557],[148.654,45.538],[148.488,45.42],[148.444,45.353],[148.343,45.291]]],[[[141.579,45.177],[141.723,44.92],[141.778,44.753],[141.787,44.587],[141.757,44.457],[141.674,44.327],[141.658,44.239],[141.662,44.017],[141.632,43.93],[141.562,43.86],[141.388,43.807],[141.33,43.725],[141.386,43.587],[141.359,43.519],[141.429,43.42],[141.424,43.329],[141.302,43.209],[141.162,43.145],[141.01,43.195],[141.017,43.24],[140.792,43.195],[140.641,43.267],[140.507,43.368],[140.36,43.316],[140.326,43.222],[140.444,43.126],[140.522,42.992],[140.415,42.941],[140.247,42.769],[140.142,42.753],[140.046,42.695],[139.872,42.666],[139.824,42.595],[139.852,42.463],[139.767,42.311],[139.797,42.232],[139.881,42.208],[139.923,42.134],[140.026,42.113],[140.12,42.004],[140.141,41.922],[140.122,41.822],[140.009,41.692],[139.988,41.551],[140.077,41.425],[140.216,41.411],[140.259,41.482],[140.406,41.52],[140.439,41.555],[140.437,41.67],[140.602,41.743],[140.626,41.809],[141.031,41.719],[141.113,41.787],[141.148,41.855],[140.959,41.918],[140.707,42.139],[140.579,42.109],[140.516,42.129],[140.384,42.224],[140.287,42.253],[140.277,42.311],[140.372,42.503],[140.477,42.589],[140.584,42.568],[140.701,42.587],[140.782,42.503],[140.872,42.461],[140.943,42.321],[140.997,42.302],[141.093,42.396],[141.351,42.543],[141.497,42.604],[141.625,42.631],[141.811,42.611],[141.9,42.578],[142.029,42.485],[142.196,42.447],[142.278,42.377],[142.478,42.275],[142.818,42.142],[142.965,42.119],[143.136,42.027],[143.216,41.952],[143.295,42.043],[143.336,42.203],[143.323,42.304],[143.433,42.476],[143.632,42.67],[143.861,42.837],[144.049,42.942],[144.169,42.985],[144.314,43.006],[144.486,42.94],[144.632,42.951],[144.723,42.98],[144.822,43.06],[144.885,42.985],[145.024,43],[145.118,43.081],[145.115,43.123],[145.298,43.173],[145.512,43.19],[145.611,43.311],[145.75,43.337],[145.651,43.391],[145.486,43.273],[145.389,43.298],[145.275,43.41],[145.247,43.522],[145.068,43.753],[145.062,43.808],[145.157,43.984],[145.223,44.039],[145.265,44.139],[145.367,44.259],[145.333,44.346],[145.192,44.196],[145.01,44.096],[144.795,43.932],[144.622,43.918],[144.407,43.945],[144.319,43.973],[144.214,44.103],[143.997,44.136],[143.785,44.181],[143.497,44.276],[143.372,44.333],[143.349,44.372],[142.997,44.558],[142.731,44.769],[142.532,45.026],[142.389,45.138],[142.17,45.341],[142.064,45.395],[141.96,45.513],[141.88,45.496],[141.858,45.435],[141.658,45.368],[141.572,45.235],[141.579,45.177]]],[[[141.15,45.225],[141.142,45.163],[141.24,45.099],[141.331,45.152],[141.295,45.222],[141.199,45.26],[141.15,45.225]]],[[[145.747,44.065],[145.407,43.842],[145.447,43.725],[145.573,43.777],[145.577,43.845],[145.641,43.904],[145.78,43.936],[145.91,44.124],[146.045,44.191],[146.116,44.265],[146.247,44.271],[146.368,44.319],[146.554,44.43],[146.333,44.419],[146.129,44.509],[146.007,44.382],[145.992,44.325],[145.885,44.246],[145.744,44.104],[145.747,44.065]]],[[[146.645,43.703],[146.921,43.839],[146.845,43.89],[146.722,43.833],[146.61,43.817],[146.586,43.744],[146.645,43.703]]],[[[139.45,42.052],[139.504,42.097],[139.536,42.234],[139.407,42.178],[139.45,42.052]]]]},"properties":{"id":1,"nam_ja":"北海道"}},
{"type":"Feature","geometry":{"type":"MultiPolygon","coordinates":[[[[134.867,35.658],[134.628,35.641],[134.541,35.669],[134.37,35.615],[134.408,35.588],[134.44,35.443],[134.513,35.354],[134.515,35.277],[134.402,35.241],[134.316,35.043],[134.281,35.035],[134.294,34.908],[134.253,34.851],[134.316,34.802],[134.321,34.722],[134.528,34.783],[134.747,34.768],[134.982,34.641],[135.06,34.625],[135.183,34.649],[135.19,34.681],[135.339,34.722],[135.403,34.693],[135.459,34.735],[135.416,34.819],[135.442,34.939],[135.346,34.965],[135.371,35.045],[135.393,35.111],[135.295,35.142],[135.156,35.226],[134.921,35.316],[134.923,35.394],[135,35.387],[135.05,35.442],[135.037,35.537],[134.926,35.513],[134.854,35.588],[134.867,35.658]]],[[[134.787,34.427],[134.727,34.33],[134.66,34.295],[134.729,34.189],[134.952,34.267],[134.894,34.354],[134.909,34.436],[135.025,34.576],[134.983,34.603],[134.787,34.427]]]]},"properties":{"id":28,"nam_ja":"兵庫県"}},
{"type":"Feature","geometry":{"type":"Polygon","coordinates":[[[139.776,36.091],[139.814,35.998],[139.887,35.897],[139.894,35.783],[139.919,35.698],[139.873,35.639],[139.968,35.683],[140.084,35.597],[140.007,35.479],[139.905,35.432],[139.819,35.304],[139.867,35.219],[139.824,35.197],[139.812,34.943],[139.887,34.903],[139.964,34.943],[139.982,35.011],[140.102,35.077],[140.326,35.14],[140.378,35.181],[140.415,35.307],[140.398,35.42],[140.497,35.578],[140.625,35.672],[140.737,35.692],[140.852,35.744],[140.73,35.796],[140.706,35.837],[140.511,35.959],[140.308,35.865],[140.147,35.846],[139.939,35.94],[139.776,36.091]]]},"properties":{"id":12,"nam_ja":"千葉県"}},
{"type":"Feature","geometry":{"type":"Polygon","coordinates":[[[137.635,36.98],[137.427,36.925],[137.392,36.807],[137.331,36.762],[137.112,36.768],[136.984,36.873],[137.052,36.96],[136.986,36.967],[136.879,36.907],[136.82,36.668],[136.786,36.63],[136.817,36.552],[136.795,36.508],[136.792,36.299],[136.907,36.361],[137.005,36.288],[137.161,36.457],[137.279,36.465],[137.313,36.425],[137.395,36.455],[137.461,36.412],[137.587,36.39],[137.633,36.426],[137.689,36.563],[137.752,36.595],[137.762,36.766],[137.711,36.945],[137.635,36.98]]]},"properties":{"id":16,"nam_ja":"富山県"}},
{"type":"Feature","geometry":{"type":"MultiPolygon","coordinates":[[[[138.944,35.855],[139.026,35.719],[139.131,35.672],[139.233,35.613],[139.399,35.584],[139.458,35.528],[139.525,35.643],[139.668,35.587],[139.703,35.537],[139.79,35.527],[139.749,35.587],[139.773,35.646],[139.873,35.639],[139.919,35.698],[139.894,35.783],[139.751,35.808],[139.537,35.792],[139.381,35.766],[139.301,35.834],[139.196,35.84],[139.024,35.897],[138.944,35.855]]],[[[139.439,34.679],[139.447,34.746],[139.36,34.799],[139.353,34.718],[139.439,34.679]]],[[[139.832,33.046],[139.858,33.078],[139.771,33.158],[139.74,33.131],[139.832,33.046]]]]},"properties":{"id":13,"nam_ja":"東京都"}},
{"type":"Feature","geometry":{"type":"Polygon","coordinates":[[[139.665,36.207],[139.444,36.197],[139.377,36.244],[139.324,36.23],[139.164,36.279],[139.108,36.253],[139.016,36.134],[138.931,36.088],[138.755,36.035],[138.713,35.985],[138.729,35.909],[138.893,35.84],[138.944,35.855],[139.024,35.897],[139.196,35.84],[139.301,35.834],[139.381,35.766],[139.537,35.792],[139.751,35.808],[139.894,35.783],[139.887,35.897],[139.814,35.998],[139.776,36.091],[139.73,36.088],[139.688,36.2],[139.665,36.207]]]},"properties":{"id":11,"nam_ja":"埼玉県"}},
{"type":"Feature","geometry":{"type":"MultiPolygon","coordinates":[[[[131.69,34.681],[131.603,34.662],[131.554,34.581],[131.396,34.42],[131.305,34.383],[131.075,34.423],[130.925,34.346],[130.866,34.287],[130.932,34.188],[130.862,34.104],[130.911,34.059],[130.916,33.979],[130.991,33.987],[131.037,34.057],[131.15,34.003],[131.178,33.931],[131.266,33.923],[131.35,33.966],[131.394,34.035],[131.449,33.995],[131.539,33.997],[131.635,34.047],[131.789,34.053],[131.93,33.951],[132.024,33.902],[132.13,33.884],[132.124,33.947],[132.213,34.003],[132.201,34.125],[132.245,34.211],[132.159,34.234],[132.084,34.358],[132.068,34.468],[131.997,34.428],[131.97,34.324],[131.798,34.317],[131.698,34.435],[131.67,34.511],[131.726,34.578],[131.69,34.681]]],[[[132.207,33.857],[132.267,33.877],[132.264,33.949],[132.183,33.951],[132.207,33.857]]]]},"properties":{"id":35,"nam_ja":"山口県"}},
{"type":"Feature","geometry":{"type":"Polygon","coordinates":[[[140.28,37.977],[140.237,37.747],[140.1,37.741],[139.993,37.759],[139.958,37.814],[139.81,37.803],[139.681,37.847],[139.68,37.775],[139.547,37.628],[139.585,37.513],[139.457,37.518],[139.362,37.47],[139.235,37.445],[139.212,37.286],[139.165,37.238],[139.253,37.16],[139.256,37.057],[139.232,36.941],[139.393,36.911],[139.46,36.97],[139.619,37.017],[139.673,37.058],[139.821,37.087],[139.831,37.132],[139.955,37.155],[140.101,37.123],[140.194,37.064],[140.264,36.933],[140.363,36.885],[140.377,36.838],[140.464,36.792],[140.539,36.859],[140.695,36.888],[140.794,36.86],[140.818,36.909],[140.921,36.934],[140.982,36.997],[141.001,37.184],[141.035,37.357],[141.024,37.646],[140.987,37.824],[140.931,37.896],[140.857,37.891],[140.853,37.796],[140.695,37.803],[140.661,37.901],[140.488,37.9],[140.475,37.947],[140.28,37.977]]]},"properties":{"id":7,"nam_ja":"福島県"}},
{"type":"Feature","geometry":{"type":"Polygon","coordinates":[[[137.052,36.96],[137.051,37.107],[136.971,37.048],[136.885,37.165],[136.918,37.221],[137.007,37.184],[137.099,37.279],[137.228,37.297],[137.268,37.337],[137.257,37.432],[137.361,37.452],[137.325,37.53],[137.122,37.491],[136.924,37.395],[136.874,37.407],[136.756,37.364],[136.67,37.149],[136.721,37.142],[136.723,37.056],[136.766,37.003],[136.747,36.837],[136.669,36.701],[136.416,36.42],[136.244,36.296],[136.332,36.229],[136.359,36.166],[136.44,36.137],[136.542,36.154],[136.664,36.068],[136.754,36.086],[136.852,36.248],[136.792,36.299],[136.795,36.508],[136.817,36.552],[136.786,36.63],[136.82,36.668],[136.879,36.907],[136.986,36.967],[137.052,36.96]]]},"properties":{"id":17,"nam_ja":"石川県"}},
{"type":"Feature","geometry":{"type":"Polygon","coordinates":[[[136.244,36.296],[136.123,36.249],[136.132,36.214],[135.958,35.976],[135.999,35.882],[136.1,35.777],[136.064,35.659],[135.866,35.609],[135.798,35.525],[135.653,35.478],[135.48,35.522],[135.486,35.558],[135.459,35.473],[135.534,35.377],[135.701,35.344],[135.768,35.356],[135.812,35.412],[135.89,35.404],[135.94,35.52],[136.105,35.529],[136.177,35.596],[136.15,35.698],[136.281,35.659],[136.328,35.775],[136.59,35.796],[136.789,35.799],[136.832,35.858],[136.792,35.947],[136.726,35.996],[136.754,36.086],[136.664,36.068],[136.542,36.154],[136.44,36.137],[136.359,36.166],[136.332,36.229],[136.244,36.296]]]},"properties":{"id":18,"nam_ja":"福井県"}},
{"type":"Feature","geometry":{"type":"Polygon","coordinates":[[[133.598,34.044],[133.511,33.97],[133.325,33.994],[133.133,33.927],[133.088,33.95],[132.972,34.115],[132.77,33.999],[132.709,33.907],[132.699,33.767],[132.651,33.697],[132.472,33.605],[132.417,33.544],[132.299,33.474],[132.408,33.458],[132.369,33.322],[132.482,33.289],[132.551,33.225],[132.455,33.137],[132.514,32.95],[132.655,32.925],[132.686,32.977],[132.663,33.109],[132.787,33.267],[132.895,33.312],[132.836,33.4],[132.847,33.479],[132.956,33.466],[133.063,33.543],[133.077,33.653],[133.157,33.75],[133.415,33.84],[133.5,33.83],[133.539,33.877],[133.66,33.882],[133.679,34.012],[133.598,34.044]]]},"properties":{"id":38,"nam_ja":"愛媛県"}},
{"type":"Feature","geometry":{"type":"Polygon","coordinates":[[[135.728,34.778],[135.673,34.702],[135.65,34.545],[135.677,34.525],[135.651,34.383],[135.668,34.224],[135.54,34.075],[135.636,33.991],[135.607,33.899],[135.858,33.873],[135.874,33.861],[135.88,33.909],[135.909,33.918],[135.927,33.981],[136.003,34.01],[136.073,34.033],[136.131,34.252],[136.07,34.388],[136.089,34.428],[136.206,34.449],[136.212,34.529],[136.049,34.58],[136.085,34.676],[136.055,34.738],[136.014,34.708],[135.916,34.753],[135.89,34.709],[135.755,34.728],[135.728,34.778]]]},"properties":{"id":29,"nam_ja":"奈良県"}},
{"type":"Feature","geometry":{"type":"MultiPolygon","coordinates":[[[[133.248,36.161],[133.327,36.168],[133.384,36.27],[133.278,36.339],[133.195,36.301],[133.178,36.25],[133.248,36.161]]],[[[132.998,36.039],[133.056,36.087],[133.012,36.134],[132.948,36.08],[132.998,36.039]]],[[[133.244,35.549],[133.151,35.56],[133.111,35.598],[132.965,35.515],[132.864,35.513],[132.727,35.47],[132.671,35.401],[132.626,35.287],[132.421,35.189],[132.309,35.057],[132.237,35.035],[132.105,34.945],[131.844,34.709],[131.69,34.681],[131.726,34.578],[131.67,34.511],[131.698,34.435],[131.798,34.317],[131.97,34.324],[131.997,34.428],[132.068,34.468],[132.036,34.502],[132.115,34.567],[132.161,34.683],[132.142,34.716],[132.435,34.821],[132.537,34.795],[132.615,34.843],[132.65,34.92],[132.72,34.948],[132.863,35.097],[132.99,35.101],[133.136,35.074],[133.178,35.232],[133.31,35.268],[133.292,35.32],[133.32,35.407],[133.221,35.481],[133.244,35.549]]]]},"properties":{"id":32,"nam_ja":"島根県"}},
{"type":"Feature","geometry":{"type":"Polygon","coordinates":[[[141.683,40.451],[141.587,40.407],[141.537,40.348],[141.436,40.374],[141.317,40.373],[141.219,40.317],[141.101,40.282],[141.016,40.219],[140.955,40.248],[140.905,40.222],[140.846,39.974],[140.878,39.875],[140.785,39.872],[140.847,39.793],[140.783,39.73],[140.823,39.688],[140.805,39.612],[140.728,39.556],[140.724,39.481],[140.654,39.391],[140.693,39.302],[140.77,39.252],[140.77,39.124],[140.801,39.077],[140.774,38.958],[140.826,38.964],[140.992,38.876],[141.094,38.888],[141.14,38.79],[141.258,38.763],[141.308,38.82],[141.422,38.78],[141.489,38.907],[141.491,38.998],[141.632,38.971],[141.848,39.039],[141.81,39.093],[141.931,39.221],[141.889,39.274],[141.939,39.387],[142.03,39.416],[142.066,39.534],[141.986,39.683],[141.997,39.778],[141.956,39.98],[141.852,40.056],[141.86,40.165],[141.817,40.271],[141.683,40.451]]]},"properties":{"id":3,"nam_ja":"岩手県"}},
{"type":"Feature","geometry":{"type":"Polygon","coordinates":[[[134.37,35.615],[134.267,35.559],[134.122,35.527],[133.963,35.523],[133.79,35.501],[133.59,35.532],[133.497,35.516],[133.389,35.454],[133.288,35.481],[133.244,35.549],[133.221,35.481],[133.32,35.407],[133.292,35.32],[133.31,35.268],[133.178,35.232],[133.136,35.074],[133.268,35.058],[133.288,35.096],[133.403,35.114],[133.397,35.165],[133.501,35.193],[133.566,35.255],[133.596,35.345],[133.797,35.294],[134.097,35.306],[134.139,35.279],[134.153,35.195],[134.321,35.202],[134.402,35.241],[134.515,35.277],[134.513,35.354],[134.44,35.443],[134.408,35.588],[134.37,35.615]]]},"properties":{"id":31,"nam_ja":"鳥取県"}},
{"type":"Feature","geometry":{"type":"Polygon","coordinates":[[[134.44,34.208],[134.359,34.184],[134.146,34.165],[134.001,34.075],[133.921,34.114],[133.783,34.08],[133.679,34.012],[133.66,33.882],[133.747,33.837],[133.839,33.845],[133.913,33.791],[133.951,33.829],[134.057,33.78],[134.067,33.689],[134.174,33.684],[134.149,33.629],[134.195,33.561],[134.305,33.549],[134.363,33.629],[134.566,33.734],[134.668,33.844],[134.698,33.95],[134.588,34.03],[134.623,34.181],[134.558,34.222],[134.44,34.208]]]},"properties":{"id":36,"nam_ja":"徳島県"}},
{"type":"Feature","geometry":{"type":"MultiPolygon","coordinates":[[[[130.158,32.09],[130.19,32.198],[130.12,32.212],[130.111,32.126],[130.158,32.09]]],[[[130.72,32.101],[130.622,32.156],[130.404,32.12],[130.36,32.168],[130.266,32.128],[130.204,32.069],[130.179,31.998],[130.223,31.911],[130.166,31.794],[130.252,31.731],[130.327,31.633],[130.321,31.512],[130.272,31.426],[130.189,31.354],[130.215,31.251],[130.307,31.266],[130.445,31.253],[130.587,31.17],[130.655,31.218],[130.658,31.271],[130.57,31.314],[130.515,31.464],[130.615,31.7],[130.686,31.734],[130.794,31.702],[130.822,31.656],[130.764,31.562],[130.695,31.625],[130.698,31.463],[130.757,31.421],[130.802,31.337],[130.766,31.18],[130.676,31.063],[130.872,31.095],[130.96,31.137],[131.016,31.228],[131.066,31.228],[131.104,31.328],[131.017,31.356],[131.074,31.455],[131.16,31.462],[131.204,31.579],[131.025,31.666],[130.99,31.775],[130.876,31.815],[130.897,31.887],[130.816,31.941],[130.777,32.014],[130.703,32.057],[130.72,32.101]]],[[[130.948,30.635],[130.95,30.587],[130.872,30.466],[130.871,30.344],[130.962,30.383],[130.958,30.459],[131.054,30.606],[131.081,30.778],[131,30.748],[130.948,30.635]]],[[[130.522,30.226],[130.602,30.251],[130.657,30.307],[130.669,30.377],[130.569,30.433],[130.469,30.461],[130.376,30.372],[130.436,30.24],[130.522,30.226]]],[[[129.645,28.433],[129.543,28.462],[129.442,28.382],[129.337,28.367],[129.215,28.298],[129.24,28.217],[129.332,28.129],[129.465,28.213],[129.455,28.293],[129.535,28.306],[129.645,28.433]]],[[[128.902,27.753],[128.925,27.665],[128.986,27.67],[129.035,27.771],[128.968,27.818],[128.965,27.892],[128.889,27.881],[128.902,27.753]]]]},"properties":{"id":46,"nam_ja":"鹿児島県"}},
{"type":"Feature","geometry":{"type":"MultiPolygon","coordinates":[[[[139.548,38.553],[139.457,38.396],[139.45,38.239],[139.427,38.177],[139.314,38.049],[139.23,37.995],[139.074,37.952],[138.865,37.837],[138.82,37.795],[138.768,37.648],[138.712,37.558],[138.655,37.52],[138.554,37.378],[138.434,37.32],[138.226,37.172],[138.102,37.174],[137.909,37.06],[137.635,36.98],[137.711,36.945],[137.762,36.766],[137.82,36.799],[137.921,36.92],[138.032,36.89],[138.003,36.827],[138.069,36.805],[138.115,36.85],[138.296,36.856],[138.395,36.997],[138.525,37.031],[138.586,36.987],[138.584,36.928],[138.693,36.852],[138.696,36.739],[138.826,36.772],[138.979,36.891],[138.97,36.981],[139.047,36.987],[139.097,37.059],[139.232,36.941],[139.256,37.057],[139.253,37.16],[139.165,37.238],[139.212,37.286],[139.235,37.445],[139.362,37.47],[139.457,37.518],[139.585,37.513],[139.547,37.628],[139.68,37.775],[139.681,37.847],[139.629,37.894],[139.644,37.995],[139.693,38.115],[139.683,38.17],[139.861,38.232],[139.9,38.276],[139.817,38.356],[139.723,38.394],[139.722,38.497],[139.548,38.553]]],[[[138.245,37.803],[138.383,37.846],[138.49,37.92],[138.572,38.065],[138.482,38.062],[138.436,38.116],[138.493,38.204],[138.439,38.266],[138.326,38.194],[138.233,38.061],[138.343,37.964],[138.285,37.92],[138.245,37.803]]]]},"properties":{"id":15,"nam_ja":"新潟県"}},
{"type":"Feature","geometry":{"type":"Polygon","coordinates":[[[133.66,33.882],[133.539,33.877],[133.5,33.83],[133.415,33.84],[133.157,33.75],[133.077,33.653],[133.063,33.543],[132.956,33.466],[132.847,33.479],[132.836,33.4],[132.895,33.312],[132.787,33.267],[132.663,33.109],[132.686,32.977],[132.655,32.925],[132.648,32.775],[132.711,32.798],[132.791,32.748],[132.85,32.785],[132.924,32.783],[132.949,32.856],[133.009,32.882],[133.011,33.015],[133.093,33.035],[133.17,33.15],[133.256,33.226],[133.238,33.296],[133.279,33.384],[133.332,33.372],[133.565,33.514],[133.729,33.538],[133.934,33.487],[134.031,33.412],[134.039,33.37],[134.163,33.265],[134.241,33.463],[134.305,33.549],[134.195,33.561],[134.149,33.629],[134.174,33.684],[134.067,33.689],[134.057,33.78],[133.951,33.829],[133.913,33.791],[133.839,33.845],[133.747,33.837],[133.66,33.882]]]},"properties":{"id":39,"nam_ja":"高知県"}},
{"type":"Feature","geometry":{"type":"Polygon","coordinates":[[[131.885,32.746],[131.858,32.821],[131.737,32.833],[131.712,32.774],[131.592,32.775],[131.475,32.837],[131.359,32.804],[131.329,32.833],[131.265,32.826],[131.231,32.744],[131.054,32.588],[131.006,32.493],[131.111,32.328],[131.046,32.244],[131.096,32.153],[131.003,32.169],[130.974,32.122],[130.857,32.1],[130.72,32.101],[130.703,32.057],[130.777,32.014],[130.816,31.941],[130.897,31.887],[130.876,31.815],[130.99,31.775],[131.025,31.666],[131.204,31.579],[131.16,31.462],[131.241,31.427],[131.255,31.38],[131.371,31.431],[131.381,31.555],[131.461,31.632],[131.449,31.68],[131.482,31.786],[131.454,31.869],[131.592,32.307],[131.708,32.587],[131.763,32.659],[131.885,32.746]]]},"properties":{"id":45,"nam_ja":"宮崎県"}},
{"type":"Feature","geometry":{"type":"Polygon","coordinates":[[[139.131,35.672],[139.129,35.564],[139.085,35.512],[138.954,35.46],[138.916,35.401],[138.995,35.403],[139.019,35.33],[138.975,35.262],[139.031,35.15],[139.111,35.141],[139.143,35.233],[139.211,35.278],[139.33,35.312],[139.545,35.308],[139.657,35.185],[139.725,35.212],[139.641,35.303],[139.636,35.452],[139.79,35.527],[139.703,35.537],[139.668,35.587],[139.525,35.643],[139.458,35.528],[139.399,35.584],[139.233,35.613],[139.131,35.672]]]},"properties":{"id":14,"nam_ja":"神奈川県"}}
]}