{"type":"FeatureCollection", "features": [
{"type":"Feature","geometry":{"type":"Point","coordinates":[135.554,35.195]},"properties":{"id":26,"nam_ja":"京都府"}},
{"type":"Feature","geometry":{"type":"Point","coordinates":[130.101,33.301]},"properties":{"id":41,"nam_ja":"佐賀県"}},
{"type":"Feature","geometry":{"type":"Point","coordinates":[130.868,32.739]},"properties":{"id":43,"nam_ja":"熊本県"}},
{"type":"Feature","geometry":{"type":"Point","coordinates":[133.975,34.221]},"properties":{"id":37,"nam_ja":"香川県"}},
{"type":"Feature","geometry":{"type":"Point","coordinates":[137.211,35.038]},"properties":{"id":23,"nam_ja":"愛知県"}},
{"type":"Feature","geometry":{"type":"Point","coordinates":[139.816,36.693]},"properties":{"id":9,"nam_ja":"栃木県"}},
{"type":"Feature","geometry":{"type":"Point","coordinates":[138.668,35.649]},"properties":{"id":19,"nam_ja":"山梨県"}},
{"type":"Feature","geometry":{"type":"Point","coordinates":[136.135,35.219]},"properties":{"id":25,"nam_ja":"滋賀県"}},
{"type":"Feature","geometry":{"type":"Point","coordinates":[138.982,36.508]},"properties":{"id":10,"nam_ja":"群馬県"}},
{"type":"Feature","geometry":{"type":"Point","coordinates":[140.865,38.536]},"properties":{"id":4,"nam_ja":"宮城県"}},
{"type":"Feature","geometry":{"type":"Point","coordinates":[138.152,35.077]},"properties":{"id":22,"nam_ja":"静岡県"}},
{"type":"Feature","geometry":{"type":"Point","coordinates":[140.323,36.201]},"properties":{"id":8,"nam_ja":"茨城県"}},
{"type":"Feature","geometry":{"type":"Point","coordinates":[127.793,26.378]},"properties":{"id":47,"nam_ja":"沖縄県"}},
{"type":"Feature","geometry":{"type":"Point","coordinates":[140.189,38.513]},"properties":{"id":6,"nam_ja":"山形県"}},
{"type":"Feature","geometry":{"type":"Point","coordinates":[135.417,33.928]},"properties":{"id":30,"nam_ja":"和歌山県"}},
{"type":"Feature","geometry":{"type":"Point","coordinates":[130.286,32.775]},"properties":{"id":42,"nam_ja":"長崎県"}},
{"type":"Feature","geometry":{"type":"Point","coordinates":[140.408,39.885]},"properties":{"id":5,"nam_ja":"秋田県"}},
{"type":"Feature","geometry":{"type":"Point","coordinates":[133.812,34.906]},"properties":{"id":33,"nam_ja":"岡山県"}},
{"type":"Feature","geometry":{"type":"Point","coordinates":[130.712,33.583]},"properties":{"id":40,"nam_ja":"福岡県"}},
{"type":"Feature","geometry":{"type":"Point","coordinates":[137.071,35.747]},"properties":{"id":21,"nam_ja":"岐阜県"}},
{"type":"Feature","geometry":{"type":"Point","coordinates":[141.111,40.631]},"properties":{"id":2,"nam_ja":"青森県"}},
{"type":"Feature","geometry":{"type":"Point","coordinates":[135.546,34.501]},"properties":{"id":27,"nam_ja":"大阪府"}},
{"type":"Feature","geometry":{"type":"Point","coordinates":[138.02,36.171]},"properties":{"id":20,"nam_ja":"長野県"}},
{"type":"Feature","geometry":{"type":"Point","coordinates":[131.434,33.082]},"properties":{"id":44,"nam_ja":"大分県"}},
{"type":"Feature","geometry":{"type":"Point","coordinates":[136.403,34.489]},"properties":{"id":24,"nam_ja":"三重県"}},
{"type":"Feature","geometry":{"type":"Point","coordinates":[132.93,34.65]},"properties":{"id":34,"nam_ja":"広島県"}},
{"type":"Feature","geometry":{"type":"Point","coordinates":[142.572,43.384]},"properties":{"id":1,"nam_ja":"北海道"}},
{"type":"Feature","geometry":{"type":"Point","coordinates":[134.812,35.066]},"properties":{"id":28,"nam_ja":"兵庫県"}},
{"type":"Feature","geometry":{"type":"Point","coordinates":[140.203,35.38]},"properties":{"id":12,"nam_ja":"千葉県"}},
{"type":"Feature","geometry":{"type":"Point","coordinates":[137.461,36.63]},"properties":{"id":16,"nam_ja":"富山県"}},
{"type":"Feature","geometry":{"type":"Point","coordinates":[139.333,35.693]},"properties":{"id":13,"nam_ja":"東京都"}},
{"type":"Feature","geometry":{"type":"Point","coordinates":[139.348,36.013]},"properties":{"id":11,"nam_ja":"埼玉県"}},
{"type":"Feature","geometry":{"type":"Point","coordinates":[131.548,34.236]},"properties":{"id":35,"nam_ja":"山口県"}},
{"type":"Feature","geometry":{"type":"Point","coordinates":[140.432,37.39]},"properties":{"id":7,"nam_ja":"福島県"}},
{"type":"Feature","geometry":{"type":"Point","coordinates":[136.606,36.376]},"properties":{"id":17,"nam_ja":"石川県"}},
{"type":"Feature","geometry":{"type":"Point","coordinates":[136.228,35.95]},"properties":{"id":18,"nam_ja":"福井県"}},
{"type":"Feature","geometry":{"type":"Point","coordinates":[132.864,33.666]},"properties":{"id":38,"nam_ja":"愛媛県"}},
{"type":"Feature","geometry":{"type":"Point","coordinates":[135.886,34.324]},"properties":{"id":29,"nam_ja":"奈良県"}},
{"type":"Feature","geometry":{"type":"Point","coordinates":[132.856,35.291]},"properties":{"id":32,"nam_ja":"島根県"}},
{"type":"Feature","geometry":{"type":"Point","coordinates":[141.36,39.596]},"properties":{"id":3,"nam_ja":"岩手県"}},
{"type":"Feature","geometry":{"type":"Point","coordinates":[134.242,35.392]},"properties":{"id":31,"nam_ja":"鳥取県"}},
{"type":"Feature","geometry":{"type":"Point","coordinates":[134.25,33.921]},"properties":{"id":36,"nam_ja":"徳島県"}},
{"type":"Feature","geometry":{"type":"Point","coordinates":[130.457,31.877]},"properties":{"id":46,"nam_ja":"鹿児島県"}},
{"type":"Feature","geometry":{"type":"Point","coordinates":[138.921,37.374]},"properties":{"id":15,"nam_ja":"新潟県"}},
{"type":"Feature","geometry":{"type":"Point","coordinates":[133.385,33.635]},"properties":{"id":39,"nam_ja":"高知県"}},
{"type":"Feature","geometry":{"type":"Point","coordinates":[131.354,32.389]},"properties":{"id":45,"nam_ja":"宮崎県"}},
{"type":"Feature","geometry":{"type":"Point","coordinates":[139.329,35.451]},"properties":{"id":14,"nam_ja":"神奈川県"}}
]}